CCSDS_OMM_VERS = 2.0
CREATION_DATE  = 
ORIGINATOR     = 

OBJECT_NAME    = KUIPER-00203
OBJECT_ID      = 2026-030K
CENTER_NAME    = EARTH
REF_FRAME      = TEME
TIME_SYSTEM    = UTC
MEAN_ELEMENT_THEORY = SGP/SGP4

EPOCH          = 2026-02-21T12:00:01.999296
MEAN_MOTION    = 15.33348846
ECCENTRICITY   = .0012195
INCLINATION    = 51.8797
RA_OF_ASC_NODE = 297.2889
ARG_OF_PERICENTER = 15.1408
MEAN_ANOMALY   = 351.0356

EPHEMERIS_TYPE = 0
CLASSIFICATION_TYPE = U
NORAD_CAT_ID   = 67773
ELEMENT_SET_NO = 999
REV_AT_EPOCH   = 130
BSTAR          = .17817E-2
MEAN_MOTION_DOT = .58488E-3
MEAN_MOTION_DDOT = 0

CCSDS_OMM_VERS = 2.0
CREATION_DATE  = 
ORIGINATOR     = 

OBJECT_NAME    = KUIPER-00205
OBJECT_ID      = 2026-030L
CENTER_NAME    = EARTH
REF_FRAME      = TEME
TIME_SYSTEM    = UTC
MEAN_ELEMENT_THEORY = SGP/SGP4

EPOCH          = 2026-02-21T12:00:01.999296
MEAN_MOTION    = 15.35571908
ECCENTRICITY   = .0001523
INCLINATION    = 51.8813
RA_OF_ASC_NODE = 297.1546
ARG_OF_PERICENTER = 338.6384
MEAN_ANOMALY   = 95.0464

EPHEMERIS_TYPE = 0
CLASSIFICATION_TYPE = U
NORAD_CAT_ID   = 67774
ELEMENT_SET_NO = 999
REV_AT_EPOCH   = 179
BSTAR          = .17007E-2
MEAN_MOTION_DOT = .59798E-3
MEAN_MOTION_DDOT = 0

CCSDS_OMM_VERS = 2.0
CREATION_DATE  = 
ORIGINATOR     = 

OBJECT_NAME    = KUIPER-00208
OBJECT_ID      = 2026-030M
CENTER_NAME    = EARTH
REF_FRAME      = TEME
TIME_SYSTEM    = UTC
MEAN_ELEMENT_THEORY = SGP/SGP4

EPOCH          = 2026-02-21T12:00:01.999296
MEAN_MOTION    = 15.32761842
ECCENTRICITY   = .0014725
INCLINATION    = 51.8831
RA_OF_ASC_NODE = 297.3250
ARG_OF_PERICENTER = 15.9235
MEAN_ANOMALY   = 335.9277

EPHEMERIS_TYPE = 0
CLASSIFICATION_TYPE = U
NORAD_CAT_ID   = 67775
ELEMENT_SET_NO = 999
REV_AT_EPOCH   = 234
BSTAR          = .17724E-2
MEAN_MOTION_DOT = .57159E-3
MEAN_MOTION_DDOT = 0

CCSDS_OMM_VERS = 2.0
CREATION_DATE  = 
ORIGINATOR     = 

OBJECT_NAME    = KUIPER-00209
OBJECT_ID      = 2026-030N
CENTER_NAME    = EARTH
REF_FRAME      = TEME
TIME_SYSTEM    = UTC
MEAN_ELEMENT_THEORY = SGP/SGP4

EPOCH          = 2026-02-21T12:00:01.999296
MEAN_MOTION    = 15.32788280
ECCENTRICITY   = .0012724
INCLINATION    = 51.8826
RA_OF_ASC_NODE = 297.3127
ARG_OF_PERICENTER = 15.7456
MEAN_ANOMALY   = 341.4118

EPHEMERIS_TYPE = 0
CLASSIFICATION_TYPE = U
NORAD_CAT_ID   = 67776
ELEMENT_SET_NO = 999
REV_AT_EPOCH   = 199
BSTAR          = .24341E-2
MEAN_MOTION_DOT = .78862E-3
MEAN_MOTION_DDOT = 0

CCSDS_OMM_VERS = 2.0
CREATION_DATE  = 
ORIGINATOR     = 

OBJECT_NAME    = KUIPER-00213
OBJECT_ID      = 2026-030P
CENTER_NAME    = EARTH
REF_FRAME      = TEME
TIME_SYSTEM    = UTC
MEAN_ELEMENT_THEORY = SGP/SGP4

EPOCH          = 2026-02-21T12:00:01.999296
MEAN_MOTION    = 15.32895921
ECCENTRICITY   = .0014163
INCLINATION    = 51.8808
RA_OF_ASC_NODE = 297.3105
ARG_OF_PERICENTER = 14.8384
MEAN_ANOMALY   = 341.4686

EPHEMERIS_TYPE = 0
CLASSIFICATION_TYPE = U
NORAD_CAT_ID   = 67777
ELEMENT_SET_NO = 999
REV_AT_EPOCH   = 250
BSTAR          = .24654E-2
MEAN_MOTION_DOT = .80215E-3
MEAN_MOTION_DDOT = 0

CCSDS_OMM_VERS = 2.0
CREATION_DATE  = 
ORIGINATOR     = 

OBJECT_NAME    = KUIPER-00214
OBJECT_ID      = 2026-030Q
CENTER_NAME    = EARTH
REF_FRAME      = TEME
TIME_SYSTEM    = UTC
MEAN_ELEMENT_THEORY = SGP/SGP4

EPOCH          = 2026-02-21T12:00:01.999296
MEAN_MOTION    = 15.36009625
ECCENTRICITY   = .0002179
INCLINATION    = 51.8847
RA_OF_ASC_NODE = 297.1211
ARG_OF_PERICENTER = 148.8247
MEAN_ANOMALY   = 302.2178

EPHEMERIS_TYPE = 0
CLASSIFICATION_TYPE = U
NORAD_CAT_ID   = 67778
ELEMENT_SET_NO = 999
REV_AT_EPOCH   = 241
BSTAR          = .17257E-2
MEAN_MOTION_DOT = .61561E-3
MEAN_MOTION_DDOT = 0

CCSDS_OMM_VERS = 2.0
CREATION_DATE  = 
ORIGINATOR     = 

OBJECT_NAME    = KUIPER-00215
OBJECT_ID      = 2026-030R
CENTER_NAME    = EARTH
REF_FRAME      = TEME
TIME_SYSTEM    = UTC
MEAN_ELEMENT_THEORY = SGP/SGP4

EPOCH          = 2026-02-21T12:00:01.999296
MEAN_MOTION    = 15.33769458
ECCENTRICITY   = .0009844
INCLINATION    = 51.8838
RA_OF_ASC_NODE = 297.2679
ARG_OF_PERICENTER = 12.1354
MEAN_ANOMALY   = 7.8082

EPHEMERIS_TYPE = 0
CLASSIFICATION_TYPE = U
NORAD_CAT_ID   = 67779
ELEMENT_SET_NO = 999
REV_AT_EPOCH   = 130
BSTAR          = .17427E-2
MEAN_MOTION_DOT = .57919E-3
MEAN_MOTION_DDOT = 0

CCSDS_OMM_VERS = 2.0
CREATION_DATE  = 
ORIGINATOR     = 

OBJECT_NAME    = KUIPER-00218
OBJECT_ID      = 2026-030S
CENTER_NAME    = EARTH
REF_FRAME      = TEME
TIME_SYSTEM    = UTC
MEAN_ELEMENT_THEORY = SGP/SGP4

EPOCH          = 2026-02-21T12:00:01.999296
MEAN_MOTION    = 15.34468294
ECCENTRICITY   = .0005891
INCLINATION    = 51.8832
RA_OF_ASC_NODE = 297.2231
ARG_OF_PERICENTER = 8.8585
MEAN_ANOMALY   = 32.3020

EPHEMERIS_TYPE = 0
CLASSIFICATION_TYPE = U
NORAD_CAT_ID   = 67780
ELEMENT_SET_NO = 999
REV_AT_EPOCH   = 138
BSTAR          = .1777E-2
MEAN_MOTION_DOT = .60359E-3
MEAN_MOTION_DDOT = 0

CCSDS_OMM_VERS = 2.0
CREATION_DATE  = 
ORIGINATOR     = 

OBJECT_NAME    = KUIPER-00220
OBJECT_ID      = 2026-030T
CENTER_NAME    = EARTH
REF_FRAME      = TEME
TIME_SYSTEM    = UTC
MEAN_ELEMENT_THEORY = SGP/SGP4

EPOCH          = 2026-02-21T12:00:01.999296
MEAN_MOTION    = 15.33987958
ECCENTRICITY   = .0007708
INCLINATION    = 51.8808
RA_OF_ASC_NODE = 297.2483
ARG_OF_PERICENTER = 10.4228
MEAN_ANOMALY   = 16.8959

EPHEMERIS_TYPE = 0
CLASSIFICATION_TYPE = U
NORAD_CAT_ID   = 67781
ELEMENT_SET_NO = 999
REV_AT_EPOCH   = 213
BSTAR          = .17404E-2
MEAN_MOTION_DOT = .58215E-3
MEAN_MOTION_DDOT = 0

CCSDS_OMM_VERS = 2.0
CREATION_DATE  = 
ORIGINATOR     = 

OBJECT_NAME    = KUIPER-00222
OBJECT_ID      = 2026-030U
CENTER_NAME    = EARTH
REF_FRAME      = TEME
TIME_SYSTEM    = UTC
MEAN_ELEMENT_THEORY = SGP/SGP4

EPOCH          = 2026-02-21T12:00:01.999296
MEAN_MOTION    = 15.32412034
ECCENTRICITY   = .0016423
INCLINATION    = 51.8805
RA_OF_ASC_NODE = 297.3341
ARG_OF_PERICENTER = 16.8482
MEAN_ANOMALY   = 327.5463

EPHEMERIS_TYPE = 0
CLASSIFICATION_TYPE = U
NORAD_CAT_ID   = 67782
ELEMENT_SET_NO = 999
REV_AT_EPOCH   = 245
BSTAR          = .18949E-2
MEAN_MOTION_DOT = .60539E-3
MEAN_MOTION_DDOT = 0

CCSDS_OMM_VERS = 2.0
CREATION_DATE  = 
ORIGINATOR     = 

OBJECT_NAME    = KUIPER-00223
OBJECT_ID      = 2026-030V
CENTER_NAME    = EARTH
REF_FRAME      = TEME
TIME_SYSTEM    = UTC
MEAN_ELEMENT_THEORY = SGP/SGP4

EPOCH          = 2026-02-21T12:00:01.999296
MEAN_MOTION    = 15.33496219
ECCENTRICITY   = .0011884
INCLINATION    = 51.8825
RA_OF_ASC_NODE = 297.2835
ARG_OF_PERICENTER = 11.8212
MEAN_ANOMALY   = 359.5502

EPHEMERIS_TYPE = 0
CLASSIFICATION_TYPE = U
NORAD_CAT_ID   = 67783
ELEMENT_SET_NO = 999
REV_AT_EPOCH   = 228
BSTAR          = .17757E-2
MEAN_MOTION_DOT = .58555E-3
MEAN_MOTION_DDOT = 0

CCSDS_OMM_VERS = 2.0
CREATION_DATE  = 
ORIGINATOR     = 

OBJECT_NAME    = KUIPER-00225
OBJECT_ID      = 2026-030W
CENTER_NAME    = EARTH
REF_FRAME      = TEME
TIME_SYSTEM    = UTC
MEAN_ELEMENT_THEORY = SGP/SGP4

EPOCH          = 2026-02-21T12:00:01.999296
MEAN_MOTION    = 15.35112564
ECCENTRICITY   = .0003118
INCLINATION    = 51.8812
RA_OF_ASC_NODE = 297.1782
ARG_OF_PERICENTER = 358.8863
MEAN_ANOMALY   = 62.9833

EPHEMERIS_TYPE = 0
CLASSIFICATION_TYPE = U
NORAD_CAT_ID   = 67784
ELEMENT_SET_NO = 999
REV_AT_EPOCH   = 153
BSTAR          = .17877E-2
MEAN_MOTION_DOT = .6198E-3
MEAN_MOTION_DDOT = 0

