KUIPER-00203            
1 67773U 26030K   26052.50002314  .00058488  00000+0  17817-2 0  9999
2 67773  51.8797 297.2889 0012195  15.1408 351.0356 15.33348846  1303
KUIPER-00205            
1 67774U 26030L   26052.50002314  .00059798  00000+0  17007-2 0  9996
2 67774  51.8813 297.1546 0001523 338.6384  95.0464 15.35571908  1798
KUIPER-00208            
1 67775U 26030M   26052.50002314  .00057159  00000+0  17724-2 0  9992
2 67775  51.8831 297.3250 0014725  15.9235 335.9277 15.32761842  2346
KUIPER-00209            
1 67776U 26030N   26052.50002314  .00078862  00000+0  24341-2 0  9990
2 67776  51.8826 297.3127 0012724  15.7456 341.4118 15.32788280  1995
KUIPER-00213            
1 67777U 26030P   26052.50002314  .00080215  00000+0  24654-2 0  9993
2 67777  51.8808 297.3105 0014163  14.8384 341.4686 15.32895921  2500
KUIPER-00214            
1 67778U 26030Q   26052.50002314  .00061561  00000+0  17257-2 0  9998
2 67778  51.8847 297.1211 0002179 148.8247 302.2178 15.36009625  2413
KUIPER-00215            
1 67779U 26030R   26052.50002314  .00057919  00000+0  17427-2 0  9990
2 67779  51.8838 297.2679 0009844  12.1354   7.8082 15.33769458  1304
KUIPER-00218            
1 67780U 26030S   26052.50002314  .00060359  00000+0  17770-2 0  9995
2 67780  51.8832 297.2231 0005891   8.8585  32.3020 15.34468294  1388
KUIPER-00220            
1 67781U 26030T   26052.50002314  .00058215  00000+0  17404-2 0  9998
2 67781  51.8808 297.2483 0007708  10.4228  16.8959 15.33987958  2137
KUIPER-00222            
1 67782U 26030U   26052.50002314  .00060539  00000+0  18949-2 0  9996
2 67782  51.8805 297.3341 0016423  16.8482 327.5463 15.32412034  2459
KUIPER-00223            
1 67783U 26030V   26052.50002314  .00058555  00000+0  17757-2 0  9998
2 67783  51.8825 297.2835 0011884  11.8212 359.5502 15.33496219  2289
KUIPER-00225            
1 67784U 26030W   26052.50002314  .00061980  00000+0  17877-2 0  9998
2 67784  51.8812 297.1782 0003118 358.8863  62.9833 15.35112564  1532
